[{"OBJECT_NAME":"STARLINK-34714","OBJECT_ID":"2025-158H","EPOCH":"2026-03-09T15:26:25.636128","MEAN_MOTION":15.05667828,"ECCENTRICITY":0.0001395,"INCLINATION":97.6029,"RA_OF_ASC_NODE":294.1154,"ARG_OF_PERICENTER":61.921,"MEAN_ANOMALY":298.2158,"EPHEMERIS_TYPE":0,"CLASSIFICATION_TYPE":"U","NORAD_CAT_ID":64939,"ELEMENT_SET_NO":999,"REV_AT_EPOCH":3519,"BSTAR":0.00048537,"MEAN_MOTION_DOT":6.953e-5,"MEAN_MOTION_DDOT":0},{"OBJECT_NAME":"CP5","OBJECT_ID":"2012-048F","EPOCH":"2026-03-09T13:13:18.209280","MEAN_MOTION":15.25131456,"ECCENTRICITY":0.0097184,"INCLINATION":64.6452,"RA_OF_ASC_NODE":121.238,"ARG_OF_PERICENTER":206.221,"MEAN_ANOMALY":153.3981,"EPHEMERIS_TYPE":0,"CLASSIFICATION_TYPE":"U","NORAD_CAT_ID":38763,"ELEMENT_SET_NO":999,"REV_AT_EPOCH":10155,"BSTAR":0.00057686,"MEAN_MOTION_DOT":0.00016437,"MEAN_MOTION_DDOT":0}]
